start=new Date('2022-12-26T00:00:00.000Z').valueOf();
sats=[{"MEAN_ANOMALY":"316.8512","EPHEMERIS_TYPE":"0","ARG_OF_PERICENTER":"43.2685","OBJECT_NAME":"STARLINK-3506","TIME_SYSTEM":"UTC","APOAPSIS":"541.535","BSTAR":"0.00028723000000","TLE_LINE1":"1 51751U 22016AP  22359.71353610  .00004287  00000-0  28723-3 0  9993","CENTER_NAME":"EARTH","OBJECT_TYPE":"PAYLOAD","FILE":"3722315","LAUNCH_DATE":"2022-02-21","SEMIMAJOR_AXIS":"6917.864","ELEMENT_SET_NO":"999","DECAY_DATE":null,"PERIOD":"95.437","SITE":"AFETR","OBJECT_ID":"2022-016AP","EPOCH":"2022-12-25T17:07:29.519040","NORAD_CAT_ID":"51751","TLE_LINE2":"2 51751  53.2154 161.3556 0002611  43.2685 316.8512 15.08845360 47070","REV_AT_EPOCH":"4707","MEAN_ELEMENT_THEORY":"SGP4","MEAN_MOTION_DDOT":"0.0000000000000","ECCENTRICITY":"0.00026110","REF_FRAME":"TEME","COUNTRY_CODE":"US","RA_OF_ASC_NODE":"161.3556","GP_ID":"221452957","MEAN_MOTION":"15.08845360","MEAN_MOTION_DOT":"0.00004287","PERIAPSIS":"537.923","RCS_SIZE":"LARGE","INCLINATION":"53.2154","CLASSIFICATION_TYPE":"U"},{"MEAN_ANOMALY":"313.6939","EPHEMERIS_TYPE":"0","ARG_OF_PERICENTER":"46.4343","OBJECT_NAME":"STARLINK-3511","TIME_SYSTEM":"UTC","APOAPSIS":"542.286","BSTAR":"0.00043435000000","TLE_LINE1":"1 51752U 22016AQ  22359.83130661  .00006624  00000-0  43435-3 0  9990","CENTER_NAME":"EARTH","OBJECT_TYPE":"PAYLOAD","FILE":"3722278","SEMIMAJOR_AXIS":"6918.006","LAUNCH_DATE":"2022-02-21","ELEMENT_SET_NO":"999","DECAY_DATE":null,"SITE":"AFETR","PERIOD":"95.440","OBJECT_ID":"2022-016AQ","EPOCH":"2022-12-25T19:57:04.891104","NORAD_CAT_ID":"51752","TLE_LINE2":"2 51752  53.2162 160.8287 0003491  46.4343 313.6939 15.08798870 48205","REV_AT_EPOCH":"4820","MEAN_ELEMENT_THEORY":"SGP4","MEAN_MOTION_DDOT":"0.0000000000000","ECCENTRICITY":"0.00034910","REF_FRAME":"TEME","COUNTRY_CODE":"US","RA_OF_ASC_NODE":"160.8287","GP_ID":"221428840","MEAN_MOTION":"15.08798870","MEAN_MOTION_DOT":"0.00006624","PERIAPSIS":"537.456","INCLINATION":"53.2162","RCS_SIZE":"LARGE","CLASSIFICATION_TYPE":"U"},{"REF_FRAME":"TEME","MEAN_ELEMENT_THEORY":"SGP4","ECCENTRICITY":"0.00032810","MEAN_MOTION_DDOT":"0.0000000000000","GP_ID":"221451956","COUNTRY_CODE":"US","RA_OF_ASC_NODE":"161.6854","MEAN_MOTION":"15.08831674","CLASSIFICATION_TYPE":"U","MEAN_MOTION_DOT":"0.00000010","INCLINATION":"53.2148","RCS_SIZE":"LARGE","PERIAPSIS":"537.501","MEAN_ANOMALY":"317.5353","EPHEMERIS_TYPE":"0","OBJECT_NAME":"STARLINK-3507","TLE_LINE1":"1 51753U 22016AR  22359.63993769  .00000010  00000-0  18771-4 0  9994","BSTAR":"0.00001877100000","APOAPSIS":"542.041","TIME_SYSTEM":"UTC","ARG_OF_PERICENTER":"42.5893","FILE":"3722315","LAUNCH_DATE":"2022-02-21","SEMIMAJOR_AXIS":"6917.906","CENTER_NAME":"EARTH","OBJECT_TYPE":"PAYLOAD","TLE_LINE2":"2 51753  53.2148 161.6854 0003281  42.5893 317.5353 15.08831674 47069","NORAD_CAT_ID":"51753","REV_AT_EPOCH":"4706","DECAY_DATE":null,"SITE":"AFETR","PERIOD":"95.438","OBJECT_ID":"2022-016AR","ELEMENT_SET_NO":"999","EPOCH":"2022-12-25T15:21:30.616416"},{"MEAN_MOTION":"15.08833727","CLASSIFICATION_TYPE":"U","MEAN_MOTION_DOT":"0.00000136","PERIAPSIS":"537.318","INCLINATION":"53.2162","RCS_SIZE":"LARGE","REF_FRAME":"TEME","MEAN_ELEMENT_THEORY":"SGP4","MEAN_MOTION_DDOT":"0.0000000000000","ECCENTRICITY":"0.00035370","GP_ID":"221452206","COUNTRY_CODE":"US","RA_OF_ASC_NODE":"161.1506","FILE":"3722315","LAUNCH_DATE":"2022-02-21","SEMIMAJOR_AXIS":"6917.900","CENTER_NAME":"EARTH","OBJECT_TYPE":"PAYLOAD","NORAD_CAT_ID":"51754","TLE_LINE2":"2 51754  53.2162 161.1506 0003537  46.4671 313.6615 15.08833727 47087","REV_AT_EPOCH":"4708","ELEMENT_SET_NO":"999","DECAY_DATE":null,"SITE":"AFETR","PERIOD":"95.438","OBJECT_ID":"2022-016AS","EPOCH":"2022-12-25T18:12:27.817056","MEAN_ANOMALY":"313.6615","EPHEMERIS_TYPE":"0","OBJECT_NAME":"STARLINK-3457","APOAPSIS":"542.211","TIME_SYSTEM":"UTC","BSTAR":"0.00002670600000","TLE_LINE1":"1 51754U 22016AS  22359.75865529  .00000136  00000-0  26706-4 0  9996","ARG_OF_PERICENTER":"46.4671"},{"PERIAPSIS":"537.587","RCS_SIZE":"LARGE","INCLINATION":"53.2148","MEAN_MOTION_DOT":"0.00000072","CLASSIFICATION_TYPE":"U","MEAN_MOTION":"15.08844436","RA_OF_ASC_NODE":"160.8406","COUNTRY_CODE":"US","GP_ID":"221428760","ECCENTRICITY":"0.00031010","MEAN_MOTION_DDOT":"0.0000000000000","MEAN_ELEMENT_THEORY":"SGP4","REF_FRAME":"TEME","EPOCH":"2022-12-25T19:51:45.226656","ELEMENT_SET_NO":"999","DECAY_DATE":null,"SITE":"AFETR","PERIOD":"95.437","OBJECT_ID":"2022-016AT","REV_AT_EPOCH":"4820","NORAD_CAT_ID":"51755","TLE_LINE2":"2 51755  53.2148 160.8406 0003101  38.7456 321.3758 15.08844436 48207","OBJECT_TYPE":"PAYLOAD","CENTER_NAME":"EARTH","LAUNCH_DATE":"2022-02-21","SEMIMAJOR_AXIS":"6917.867","FILE":"3722285","ARG_OF_PERICENTER":"38.7456","APOAPSIS":"541.877","TIME_SYSTEM":"UTC","BSTAR":"0.00002264700000","TLE_LINE1":"1 51755U 22016AT  22359.82760679  .00000072  00000-0  22647-4 0  9994","OBJECT_NAME":"STARLINK-3460","EPHEMERIS_TYPE":"0","MEAN_ANOMALY":"321.3758"},{"OBJECT_NAME":"STARLINK-3513","TIME_SYSTEM":"UTC","APOAPSIS":"541.773","BSTAR":"0.00005082600000","TLE_LINE1":"1 51756U 22016AU  22359.86440184  .00000521  00000-0  50826-4 0  9994","ARG_OF_PERICENTER":"42.8157","MEAN_ANOMALY":"317.3065","EPHEMERIS_TYPE":"0","NORAD_CAT_ID":"51756","TLE_LINE2":"2 51756  53.2154 160.6813 0002957  42.8157 317.3065 15.08846018 47109","REV_AT_EPOCH":"4710","ELEMENT_SET_NO":"999","DECAY_DATE":null,"SITE":"AFETR","OBJECT_ID":"2022-016AU","PERIOD":"95.437","EPOCH":"2022-12-25T20:44:44.318976","FILE":"3722315","SEMIMAJOR_AXIS":"6917.862","LAUNCH_DATE":"2022-02-21","CENTER_NAME":"EARTH","OBJECT_TYPE":"PAYLOAD","GP_ID":"221453208","COUNTRY_CODE":"US","RA_OF_ASC_NODE":"160.6813","REF_FRAME":"TEME","MEAN_ELEMENT_THEORY":"SGP4","MEAN_MOTION_DDOT":"0.0000000000000","ECCENTRICITY":"0.00029570","CLASSIFICATION_TYPE":"U","MEAN_MOTION_DOT":"0.00000521","PERIAPSIS":"537.681","INCLINATION":"53.2154","RCS_SIZE":"LARGE","MEAN_MOTION":"15.08846018"},{"REF_FRAME":"TEME","ECCENTRICITY":"0.00028370","MEAN_MOTION_DDOT":"0.0000000000000","MEAN_ELEMENT_THEORY":"SGP4","GP_ID":"221452456","RA_OF_ASC_NODE":"160.7031","COUNTRY_CODE":"US","MEAN_MOTION":"15.08843987","CLASSIFICATION_TYPE":"U","PERIAPSIS":"537.771","RCS_SIZE":"LARGE","INCLINATION":"53.2173","MEAN_MOTION_DOT":"-0.00000819","EPHEMERIS_TYPE":"0","MEAN_ANOMALY":"311.8201","APOAPSIS":"541.696","TIME_SYSTEM":"UTC","BSTAR":"-0.00003334200000","TLE_LINE1":"1 51757U 22016AV  22359.86072454 -.00000819  00000-0 -33342-4 0  9992","OBJECT_NAME":"STARLINK-3459","ARG_OF_PERICENTER":"48.3033","SEMIMAJOR_AXIS":"6917.868","LAUNCH_DATE":"2022-02-21","FILE":"3722315","OBJECT_TYPE":"PAYLOAD","CENTER_NAME":"EARTH","REV_AT_EPOCH":"4710","NORAD_CAT_ID":"51757","TLE_LINE2":"2 51757  53.2173 160.7031 0002837  48.3033 311.8201 15.08843987 47108","EPOCH":"2022-12-25T20:39:26.600256","ELEMENT_SET_NO":"999","DECAY_DATE":null,"OBJECT_ID":"2022-016AV","SITE":"AFETR","PERIOD":"95.437"},{"MEAN_MOTION":"15.08846058","MEAN_MOTION_DOT":"0.00002259","PERIAPSIS":"537.658","INCLINATION":"53.2161","RCS_SIZE":"LARGE","CLASSIFICATION_TYPE":"U","MEAN_ELEMENT_THEORY":"SGP4","ECCENTRICITY":"0.00029910","MEAN_MOTION_DDOT":"0.0000000000000","REF_FRAME":"TEME","COUNTRY_CODE":"US","RA_OF_ASC_NODE":"160.7088","GP_ID":"221452706","CENTER_NAME":"EARTH","OBJECT_TYPE":"PAYLOAD","FILE":"3722315","LAUNCH_DATE":"2022-02-21","SEMIMAJOR_AXIS":"6917.862","ELEMENT_SET_NO":"999","PERIOD":"95.437","DECAY_DATE":null,"SITE":"AFETR","OBJECT_ID":"2022-016AW","EPOCH":"2022-12-25T20:35:31.477344","NORAD_CAT_ID":"51758","TLE_LINE2":"2 51758  53.2161 160.7088 0002991  45.8344 314.2893 15.08846058 48248","REV_AT_EPOCH":"4824","MEAN_ANOMALY":"314.2893","EPHEMERIS_TYPE":"0","ARG_OF_PERICENTER":"45.8344","OBJECT_NAME":"STARLINK-3458","APOAPSIS":"541.796","TIME_SYSTEM":"UTC","BSTAR":"0.00015997000000","TLE_LINE1":"1 51758U 22016AW  22359.85800321  .00002259  00000-0  15997-3 0  9997"},{"COUNTRY_CODE":"US","RA_OF_ASC_NODE":"160.7168","GP_ID":"221428757","MEAN_ELEMENT_THEORY":"SGP4","MEAN_MOTION_DDOT":"0.0000000000000","ECCENTRICITY":"0.00029350","REF_FRAME":"TEME","MEAN_MOTION_DOT":"-0.00001416","PERIAPSIS":"537.727","RCS_SIZE":"LARGE","INCLINATION":"53.2170","CLASSIFICATION_TYPE":"U","MEAN_MOTION":"15.08835963","ARG_OF_PERICENTER":"41.2296","OBJECT_NAME":"STARLINK-3456","APOAPSIS":"541.788","BSTAR":"-0.00007083000000","TIME_SYSTEM":"UTC","TLE_LINE1":"1 51759U 22016AX  22359.85705249 -.00001416  00000-0 -70830-4 0  9995","MEAN_ANOMALY":"318.8918","EPHEMERIS_TYPE":"0","ELEMENT_SET_NO":"999","SITE":"AFETR","DECAY_DATE":null,"OBJECT_ID":"2022-016AX","PERIOD":"95.438","EPOCH":"2022-12-25T20:34:09.335136","NORAD_CAT_ID":"51759","TLE_LINE2":"2 51759  53.2170 160.7168 0002935  41.2296 318.8918 15.08835963 48232","REV_AT_EPOCH":"4823","CENTER_NAME":"EARTH","OBJECT_TYPE":"PAYLOAD","FILE":"3722285","LAUNCH_DATE":"2022-02-21","SEMIMAJOR_AXIS":"6917.893"},{"ARG_OF_PERICENTER":"39.4893","TLE_LINE1":"1 51768U 22017A   22359.68869818  .00000015  00000-0  19074-4 0  9995","TIME_SYSTEM":"UTC","APOAPSIS":"541.710","BSTAR":"0.00001907400000","OBJECT_NAME":"STARLINK-3622","EPHEMERIS_TYPE":"0","MEAN_ANOMALY":"320.6303","EPOCH":"2022-12-25T16:31:43.522752","DECAY_DATE":null,"OBJECT_ID":"2022-017A","SITE":"AFWTR","PERIOD":"95.438","ELEMENT_SET_NO":"999","REV_AT_EPOCH":"4741","TLE_LINE2":"2 51768  53.2162 191.4609 0002801  39.4893 320.6303 15.08831355 47417","NORAD_CAT_ID":"51768","OBJECT_TYPE":"PAYLOAD","CENTER_NAME":"EARTH","SEMIMAJOR_AXIS":"6917.907","LAUNCH_DATE":"2022-02-25","FILE":"3722315","RA_OF_ASC_NODE":"191.4609","COUNTRY_CODE":"US","GP_ID":"221453707","MEAN_MOTION_DDOT":"0.0000000000000","ECCENTRICITY":"0.00028010","MEAN_ELEMENT_THEORY":"SGP4","REF_FRAME":"TEME","INCLINATION":"53.2162","RCS_SIZE":"LARGE","PERIAPSIS":"537.834","MEAN_MOTION_DOT":"0.00000015","CLASSIFICATION_TYPE":"U","MEAN_MOTION":"15.08831355"}];
